SES-1                   
1 36516U 10016A   26154.90346265 -.00000103  00000+0  00000+0 0  9995
2 36516   0.0114 339.3493 0002984  96.5177  40.7451  1.00272195 58901
ASTRA 3B                
1 36581U 10021A   26155.14198786  .00000149  00000+0  00000+0 0  9992
2 36581   1.4370  83.7091 0004417 347.8381 255.6357  1.00272337 58739
COMSATBW-2              
1 36582U 10021B   26155.13990786  .00000101  00000+0  00000+0 0  9990
2 36582   0.0123   3.1672 0003334  87.9079 225.1206  1.00277629 58829
BEIDOU-2 G3             
1 36590U 10024A   26154.93254480 -.00000126  00000+0  00000+0 0  9991
2 36590   4.4849  61.5744 0008567 349.6496 256.5613  1.00273721 58631
BADR-5                  
1 36592U 10025A   26155.14337454  .00000166  00000+0  00000+0 0  9994
2 36592   0.0872 104.8601 0002807  75.1829 154.6459  1.00276492 53084
COMS 1                  
1 36744U 10032A   26152.73864208 -.00000334  00000+0  00000+0 0  9993
2 36744   4.7700  75.5552 0001064 351.7830 216.9341  1.00271905 50939
ARABSAT-5A              
1 36745U 10032B   26155.14337454  .00000166  00000+0  00000+0 0  9992
2 36745   0.0644  45.5959 0005507  53.2025 235.9159  1.00273719 58515
ECHOSTAR 15             
1 36792U 10034A   26154.89982264  .00000012  00000+0  00000+0 0  9992
2 36792   0.0556  80.7398 0002027 347.2012  29.5402  1.00271421 58193
BEIDOU-2 IGSO-1         
1 36828U 10036A   26154.71270311 -.00000061  00000+0  00000+0 0  9993
2 36828  54.3005 163.0810 0058950 224.9172 228.3709  1.00276584 57960
NILESAT 201             
1 36830U 10037A   26155.13592117 -.00000046  00000+0  00000+0 0  9998
2 36830   0.0106 274.8309 0004501 188.7473 190.9465  1.00272048 58247
RASCOM-QAF 1R           
1 36831U 10037B   26155.13791450  .00000031  00000+0  00000+0 0  9993
2 36831   0.0089 327.6152 0006627 102.3194 235.2041  1.00272339 58172
AEHF-1 (USA 214)        
1 36868U 10039A   26155.07683615  .00000157  00000+0  00000+0 0  9990
2 36868   8.1866  68.2163 0004299   2.4706 239.4598  1.00269060 53520
XM-5                    
1 37185U 10053A   26155.15044869 -.00000011  00000+0  00000+0 0  9990
2 37185   0.0621 274.2683 0003021 276.9495   0.3533  1.00273109 57352
BSAT-3B                 
1 37207U 10056B   26155.01433639 -.00000338  00000+0  00000+0 0  9992
2 37207   0.0589 242.7219 0001263 278.9812 205.7535  1.00269974 51965
BEIDOU-2 G4             
1 37210U 10057A   26155.16902799 -.00000101  00000+0  00000+0 0  9999
2 37210   3.6150  69.0257 0004835 204.0317 200.4240  1.00272425 57160
SKYTERRA 1              
1 37218U 10061A   26155.18794779 -.00000108  00000+0  00000+0 0  9998
2 37218   5.0974  50.8659 0003010  15.8507 152.2652  1.00271251 57061
HYLAS 1                 
1 37237U 10065A   26154.92617868  .00000100  00000+0  00000+0 0  9998
2 37237   5.6100  73.1808 0001262 325.7611 200.6674  1.00273065  6756
INTELSAT 17 (IS-17)     
1 37238U 10065B   26155.15039456  .00000010  00000+0  00000+0 0  9996
2 37238   0.0091 282.9347 0002388 153.6832 296.1153  1.00271730 53117
BEIDOU-2 IGSO-2         
1 37256U 10068A   26149.93047685 -.00000227  00000+0  00000+0 0  9992
2 37256  47.5822 272.0579 0055238 212.8050 204.6695  1.00287198 56612
EUTELSAT KA-SAT 9A      
1 37258U 10069A   26155.06780993  .00000074  00000+0  00000+0 0  9991
2 37258   0.0607   9.8756 0004147 120.7532 155.2975  1.00271896 43871
HISPASAT 30W-5          
1 37264U 10070A   26154.98882718 -.00000204  00000+0  00000+0 0  9994
2 37264   0.0579 113.8829 0005230 341.3965 123.1632  1.00271874 53059
KOREASAT 6              
1 37265U 10070B   26155.09762340 -.00000099  00000+0  00000+0 0  9998
2 37265   0.0134  39.7632 0002436  38.7482   9.0730  1.00272246 56644
BEIDOU-2 IGSO-3         
1 37384U 11013A   26154.69025677 -.00000180  00000+0  00000+0 0  9999
2 37384  62.3886  40.2803 0034401 185.8620  22.5488  1.00271806 55520
INTELSAT 28 (IS-28)     
1 37392U 11016A   26155.05972513 -.00000213  00000+0  00000+0 0  9999
2 37392   1.7721  82.7826 0004090 350.2513 169.3065  1.00270381 53155
YAHSAT 1A               
1 37393U 11016B   26155.07638998  .00000000  00000+0  00000+0 0  9991
2 37393   0.0153 345.0828 0003287  96.7036 250.7338  1.00272716 42276
SBIRS GEO-1 (USA 230)   
1 37481U 11019A   26155.09975197  .00000110  00000+0  00000+0 0  9991
2 37481   4.5083  53.1318 0002109  10.2127 276.9125  1.00271948 55263
TELSTAR 14R             
1 37602U 11021A   26154.83965437 -.00000268  00000+0  00000+0 0  9991
2 37602   0.0173 346.8360 0002640  79.1263  65.6116  1.00271719 55701
GSAT-8                  
1 37605U 11022A   26155.14822788  .00000096  00000+0  00000+0 0  9999
2 37605   2.0972  81.9840 0002204 222.5601  56.5001  1.00273051 53081
ST-2                    
1 37606U 11022B   26155.08341000 -.00000200  00000+0  00000+0 0  9994
2 37606   0.0181  16.5565 0001963  71.6734 282.3599  1.00272225 55143
ZHONGXING-10            
1 37677U 11026A   26155.15429459 -.00000177  00000+0  00000+0 0  9992
2 37677   1.0135  84.3576 0003689 353.3142 316.0245  1.00272019 54868
SES-3                   
1 37748U 11035A   26155.23152080 -.00000090  00000+0  00000+0 0  9997
2 37748   1.2930  83.2285 0002893 344.6526 165.1495  1.00271586 54466
KAZSAT-2                
1 37749U 11035B   26155.08315000 -.00000186  00000+0  00000+0 0  9990
2 37749   0.0378 250.7310 0001191 241.6561 236.6090  1.00270979 53262
