OBJECT_NAME,OBJECT_ID,EPOCH,MEAN_MOTION,ECCENTRICITY,INCLINATION,RA_OF_ASC_NODE,ARG_OF_PERICENTER,MEAN_ANOMALY,EPHEMERIS_TYPE,CLASSIFICATION_TYPE,NORAD_CAT_ID,ELEMENT_SET_NO,REV_AT_EPOCH,BSTAR,MEAN_MOTION_DOT,MEAN_MOTION_DDOT
SES-1,2010-016A,2026-06-03T21:40:59.172960,1.00272195,.0002984,0.0114,339.3493,96.5177,40.7451,0,U,36516,999,5890,0,-.103E-5,0
ASTRA 3B,2010-021A,2026-06-04T03:24:27.751104,1.00272337,.0004417,1.4370,83.7091,347.8381,255.6357,0,U,36581,999,5873,0,.149E-5,0
COMSATBW-2,2010-021B,2026-06-04T03:21:28.039104,1.00277629,.0003334,0.0123,3.1672,87.9079,225.1206,0,U,36582,999,5882,0,.101E-5,0
BEIDOU-2 G3,2010-024A,2026-06-03T22:22:51.870720,1.00273721,.0008567,4.4849,61.5744,349.6496,256.5613,0,U,36590,999,5863,0,-.126E-5,0
BADR-5,2010-025A,2026-06-04T03:26:27.560256,1.00276492,.0002807,0.0872,104.8601,75.1829,154.6459,0,U,36592,999,5308,0,.166E-5,0
COMS 1,2010-032A,2026-06-01T17:43:38.675712,1.00271905,.00010648,4.7700,75.5552,351.7830,216.9341,0,U,36744,999,5093,0,-.334E-5,0
ARABSAT-5A,2010-032B,2026-06-04T03:26:27.560256,1.00273719,.0005507,0.0644,45.5959,53.2025,235.9159,0,U,36745,999,5851,0,.166E-5,0
ECHOSTAR 15,2010-034A,2026-06-03T21:35:44.676096,1.00271421,.0002027,0.0556,80.7398,347.2012,29.5402,0,U,36792,999,5819,0,.12E-6,0
BEIDOU-2 IGSO-1,2010-036A,2026-06-03T17:06:17.548704,1.00276584,.00589509,54.3005,163.0810,224.9172,228.3709,0,U,36828,999,5796,0,-.61E-6,0
NILESAT 201,2010-037A,2026-06-04T03:15:43.589088,1.00272048,.0004501,0.0106,274.8309,188.7473,190.9465,0,U,36830,999,5824,0,-.46E-6,0
RASCOM-QAF 1R,2010-037B,2026-06-04T03:18:35.812800,1.00272339,.0006627,0.0089,327.6152,102.3194,235.2041,0,U,36831,999,5817,0,.31E-6,0
AEHF-1 (USA 214),2010-039A,2026-06-04T01:50:38.643360,1.00269060,.0004299,8.1866,68.2163,2.4706,239.4598,0,U,36868,999,5352,0,.157E-5,0
XM-5,2010-053A,2026-06-04T03:36:38.766816,1.00273109,.0003021,0.0621,274.2683,276.9495,0.3533,0,U,37185,999,5735,0,-.11E-6,0
BSAT-3B,2010-056B,2026-06-04T00:20:38.664096,1.00269974,.0001263,0.0589,242.7219,278.9812,205.7535,0,U,37207,999,5196,0,-.338E-5,0
BEIDOU-2 G4,2010-057A,2026-06-04T04:03:24.018336,1.00272425,.0004835,3.6150,69.0257,204.0317,200.4240,0,U,37210,999,5716,0,-.101E-5,0
SKYTERRA 1,2010-061A,2026-06-04T04:30:38.689056,1.00271251,.000301,5.0974,50.8659,15.8507,152.2652,0,U,37218,999,5706,0,-.108E-5,0
HYLAS 1,2010-065A,2026-06-03T22:13:41.837952,1.00273065,.0001262,5.6100,73.1808,325.7611,200.6674,0,U,37237,999,675,0,.1E-5,0
INTELSAT 17 (IS-17),2010-065B,2026-06-04T03:36:34.089984,1.00271730,.0002388,0.0091,282.9347,153.6832,296.1153,0,U,37238,999,5311,0,.1E-6,0
BEIDOU-2 IGSO-2,2010-068A,2026-05-29T22:19:53.199840,1.00287198,.00552386,47.5822,272.0579,212.8050,204.6695,0,U,37256,999,5661,0,-.227E-5,0
EUTELSAT KA-SAT 9A,2010-069A,2026-06-04T01:37:38.777952,1.00271896,.0004147,0.0607,9.8756,120.7532,155.2975,0,U,37258,999,4387,0,.74E-6,0
HISPASAT 30W-5,2010-070A,2026-06-03T23:43:54.668352,1.00271874,.000523,0.0579,113.8829,341.3965,123.1632,0,U,37264,999,5305,0,-.204E-5,0
KOREASAT 6,2010-070B,2026-06-04T02:20:34.661760,1.00272246,.0002436,0.0134,39.7632,38.7482,9.0730,0,U,37265,999,5664,0,-.99E-6,0
BEIDOU-2 IGSO-3,2011-013A,2026-06-03T16:33:58.184928,1.00271806,.00344018,62.3886,40.2803,185.8620,22.5488,0,U,37384,999,5552,0,-.18E-5,0
INTELSAT 28 (IS-28),2011-016A,2026-06-04T01:26:00.251232,1.00270381,.000409,1.7721,82.7826,350.2513,169.3065,0,U,37392,999,5315,0,-.213E-5,0
YAHSAT 1A,2011-016B,2026-06-04T01:50:00.094272,1.00272716,.0003287,0.0153,345.0828,96.7036,250.7338,0,U,37393,999,4227,0,0,0
SBIRS GEO-1 (USA 230),2011-019A,2026-06-04T02:23:38.570208,1.00271948,.0002109,4.5083,53.1318,10.2127,276.9125,0,U,37481,999,5526,0,.11E-5,0
TELSTAR 14R,2011-021A,2026-06-03T20:09:06.137568,1.00271719,.000264,0.0173,346.8360,79.1263,65.6116,0,U,37602,999,5570,0,-.268E-5,0
GSAT-8,2011-022A,2026-06-04T03:33:26.888832,1.00273051,.0002204,2.0972,81.9840,222.5601,56.5001,0,U,37605,999,5308,0,.96E-6,0
ST-2,2011-022B,2026-06-04T02:00:06.624000,1.00272225,.0001963,0.0181,16.5565,71.6734,282.3599,0,U,37606,999,5514,0,-.2E-5,0
ZHONGXING-10,2011-026A,2026-06-04T03:42:11.052576,1.00272019,.0003689,1.0135,84.3576,353.3142,316.0245,0,U,37677,999,5486,0,-.177E-5,0
SES-3,2011-035A,2026-06-04T05:33:23.397120,1.00271586,.0002893,1.2930,83.2285,344.6526,165.1495,0,U,37748,999,5446,0,-.9E-6,0
KAZSAT-2,2011-035B,2026-06-04T01:59:44.160000,1.00270979,.0001191,0.0378,250.7310,241.6561,236.6090,0,U,37749,999,5326,0,-.186E-5,0
